[{"OBJECT_NAME":"SL-8 R/B","OBJECT_ID":"1991-006B","EPOCH":"2026-03-07T19:40:48.050112","MEAN_MOTION":13.77493949,"ECCENTRICITY":0.00231926,"INCLINATION":82.9466,"RA_OF_ASC_NODE":171.4358,"ARG_OF_PERICENTER":43.4194,"MEAN_ANOMALY":75.1074,"EPHEMERIS_TYPE":0,"CLASSIFICATION_TYPE":"U","NORAD_CAT_ID":21088,"ELEMENT_SET_NO":999,"REV_AT_EPOCH":76381,"BSTAR":7.0243322e-5,"MEAN_MOTION_DOT":8.5e-7,"MEAN_MOTION_DDOT":0},{"OBJECT_NAME":"OKEAN-3","OBJECT_ID":"1991-039A","EPOCH":"2026-03-08T03:35:26.599488","MEAN_MOTION":15.04790906,"ECCENTRICITY":0.0014085,"INCLINATION":82.5188,"RA_OF_ASC_NODE":338.3353,"ARG_OF_PERICENTER":343.9568,"MEAN_ANOMALY":16.1211,"EPHEMERIS_TYPE":0,"CLASSIFICATION_TYPE":"U","NORAD_CAT_ID":21397,"ELEMENT_SET_NO":999,"REV_AT_EPOCH":86480,"BSTAR":0.0003557,"MEAN_MOTION_DOT":5.055e-5,"MEAN_MOTION_DDOT":0},{"OBJECT_NAME":"COSMOS 2151","OBJECT_ID":"1991-042A","EPOCH":"2026-03-08T03:34:47.170848","MEAN_MOTION":15.00098793,"ECCENTRICITY":0.001401,"INCLINATION":82.493,"RA_OF_ASC_NODE":85.1627,"ARG_OF_PERICENTER":68.4741,"MEAN_ANOMALY":291.7975,"EPHEMERIS_TYPE":0,"CLASSIFICATION_TYPE":"U","NORAD_CAT_ID":21422,"ELEMENT_SET_NO":999,"REV_AT_EPOCH":86296,"BSTAR":0.00018485,"MEAN_MOTION_DOT":2.335e-5,"MEAN_MOTION_DDOT":0},{"OBJECT_NAME":"SL-14 R/B","OBJECT_ID":"1991-042B","EPOCH":"2026-03-08T03:17:27.284640","MEAN_MOTION":14.81828069,"ECCENTRICITY":0.0015724,"INCLINATION":82.492,"RA_OF_ASC_NODE":221.6381,"ARG_OF_PERICENTER":244.1694,"MEAN_ANOMALY":115.7899,"EPHEMERIS_TYPE":0,"CLASSIFICATION_TYPE":"U","NORAD_CAT_ID":21423,"ELEMENT_SET_NO":999,"REV_AT_EPOCH":85284,"BSTAR":8.9482e-5,"MEAN_MOTION_DOT":7.31e-6,"MEAN_MOTION_DDOT":0},{"OBJECT_NAME":"ERS-1","OBJECT_ID":"1991-050A","EPOCH":"2026-03-08T00:41:51.366336","MEAN_MOTION":14.39448063,"ECCENTRICITY":0.0031538,"INCLINATION":98.7884,"RA_OF_ASC_NODE":85.222,"ARG_OF_PERICENTER":205.4587,"MEAN_ANOMALY":154.5048,"EPHEMERIS_TYPE":0,"CLASSIFICATION_TYPE":"U","NORAD_CAT_ID":21574,"ELEMENT_SET_NO":999,"REV_AT_EPOCH":81549,"BSTAR":0.00015895,"MEAN_MOTION_DOT":4.51e-6,"MEAN_MOTION_DDOT":0},{"OBJECT_NAME":"ARIANE 40 R/B","OBJECT_ID":"1991-050F","EPOCH":"2026-03-08T03:40:46.466976","MEAN_MOTION":14.42892482,"ECCENTRICITY":0.0004353,"INCLINATION":98.2014,"RA_OF_ASC_NODE":119.4473,"ARG_OF_PERICENTER":84.5937,"MEAN_ANOMALY":275.575,"EPHEMERIS_TYPE":0,"CLASSIFICATION_TYPE":"U","NORAD_CAT_ID":21610,"ELEMENT_SET_NO":999,"REV_AT_EPOCH":81877,"BSTAR":0.00013694,"MEAN_MOTION_DOT":4.16e-6,"MEAN_MOTION_DDOT":0},{"OBJECT_NAME":"INTERCOSMOS 25","OBJECT_ID":"1991-086A","EPOCH":"2026-03-08T02:08:27.708576","MEAN_MOTION":12.11993967,"ECCENTRICITY":0.1486999,"INCLINATION":82.6049,"RA_OF_ASC_NODE":310.9762,"ARG_OF_PERICENTER":120.3783,"MEAN_ANOMALY":255.2719,"EPHEMERIS_TYPE":0,"CLASSIFICATION_TYPE":"U","NORAD_CAT_ID":21819,"ELEMENT_SET_NO":999,"REV_AT_EPOCH":49649,"BSTAR":0.00031231,"MEAN_MOTION_DOT":1.629e-5,"MEAN_MOTION_DDOT":0},{"OBJECT_NAME":"SL-8 R/B","OBJECT_ID":"1992-008B","EPOCH":"2026-03-08T01:25:30.607392","MEAN_MOTION":13.75969785,"ECCENTRICITY":0.0035462,"INCLINATION":82.9225,"RA_OF_ASC_NODE":268.9915,"ARG_OF_PERICENTER":137.7699,"MEAN_ANOMALY":333.189,"EPHEMERIS_TYPE":0,"CLASSIFICATION_TYPE":"U","NORAD_CAT_ID":21876,"ELEMENT_SET_NO":999,"REV_AT_EPOCH":70919,"BSTAR":-5.0561e-6,"MEAN_MOTION_DOT":1.1e-7,"MEAN_MOTION_DDOT":0},{"OBJECT_NAME":"SL-8 R/B","OBJECT_ID":"1992-020B","EPOCH":"2026-03-08T03:57:33.588576","MEAN_MOTION":13.75549419,"ECCENTRICITY":0.0027732,"INCLINATION":82.9338,"RA_OF_ASC_NODE":154.8934,"ARG_OF_PERICENTER":303.2408,"MEAN_ANOMALY":119.2347,"EPHEMERIS_TYPE":0,"CLASSIFICATION_TYPE":"U","NORAD_CAT_ID":21938,"ELEMENT_SET_NO":999,"REV_AT_EPOCH":70092,"BSTAR":9.6323e-5,"MEAN_MOTION_DOT":1.08e-6,"MEAN_MOTION_DDOT":0},{"OBJECT_NAME":"USA 81","OBJECT_ID":"1992-023A","EPOCH":"2026-03-08T02:55:35.253120","MEAN_MOTION":14.3236747,"ECCENTRICITY":0.0002515,"INCLINATION":85.0087,"RA_OF_ASC_NODE":132.3456,"ARG_OF_PERICENTER":78.8208,"MEAN_ANOMALY":281.3267,"EPHEMERIS_TYPE":0,"CLASSIFICATION_TYPE":"U","NORAD_CAT_ID":21949,"ELEMENT_SET_NO":999,"REV_AT_EPOCH":9456,"BSTAR":7.7042e-5,"MEAN_MOTION_DOT":2.28e-6,"MEAN_MOTION_DDOT":0},{"OBJECT_NAME":"COSMOS 2219","OBJECT_ID":"1992-076A","EPOCH":"2026-03-08T02:32:59.149824","MEAN_MOTION":14.14092003,"ECCENTRICITY":0.0019098,"INCLINATION":71.063,"RA_OF_ASC_NODE":21.377,"ARG_OF_PERICENTER":209.1203,"MEAN_ANOMALY":150.8856,"EPHEMERIS_TYPE":0,"CLASSIFICATION_TYPE":"U","NORAD_CAT_ID":22219,"ELEMENT_SET_NO":999,"REV_AT_EPOCH":71815,"BSTAR":0.00012555,"MEAN_MOTION_DOT":1.92e-6,"MEAN_MOTION_DDOT":0},{"OBJECT_NAME":"SL-16 R/B","OBJECT_ID":"1992-076B","EPOCH":"2026-03-08T02:16:17.398848","MEAN_MOTION":14.16860082,"ECCENTRICITY":0.0010495,"INCLINATION":71.0006,"RA_OF_ASC_NODE":191.7329,"ARG_OF_PERICENTER":99.2965,"MEAN_ANOMALY":73.3388,"EPHEMERIS_TYPE":0,"CLASSIFICATION_TYPE":"U","NORAD_CAT_ID":22220,"ELEMENT_SET_NO":999,"REV_AT_EPOCH":72160,"BSTAR":-4.0045e-5,"MEAN_MOTION_DOT":-1.28e-6,"MEAN_MOTION_DDOT":0},{"OBJECT_NAME":"COSMOS 2221","OBJECT_ID":"1992-080A","EPOCH":"2026-03-08T02:22:48.588672","MEAN_MOTION":14.96194104,"ECCENTRICITY":0.0013898,"INCLINATION":82.5009,"RA_OF_ASC_NODE":280.6049,"ARG_OF_PERICENTER":192.5803,"MEAN_ANOMALY":167.5074,"EPHEMERIS_TYPE":0,"CLASSIFICATION_TYPE":"U","NORAD_CAT_ID":22236,"ELEMENT_SET_NO":999,"REV_AT_EPOCH":78055,"BSTAR":0.00020322,"MEAN_MOTION_DOT":2.319e-5,"MEAN_MOTION_DDOT":0},{"OBJECT_NAME":"SL-16 R/B","OBJECT_ID":"1992-093B","EPOCH":"2026-03-08T02:44:16.977696","MEAN_MOTION":14.15448412,"ECCENTRICITY":0.000638,"INCLINATION":71.0242,"RA_OF_ASC_NODE":7.5728,"ARG_OF_PERICENTER":295.2642,"MEAN_ANOMALY":64.782,"EPHEMERIS_TYPE":0,"CLASSIFICATION_TYPE":"U","NORAD_CAT_ID":22285,"ELEMENT_SET_NO":999,"REV_AT_EPOCH":71293,"BSTAR":-7.7649e-5,"MEAN_MOTION_DOT":-1.99e-6,"MEAN_MOTION_DDOT":0},{"OBJECT_NAME":"COSMOS 2228","OBJECT_ID":"1992-094A","EPOCH":"2026-03-08T02:47:53.420928","MEAN_MOTION":14.97181932,"ECCENTRICITY":0.0016857,"INCLINATION":82.5154,"RA_OF_ASC_NODE":238.8166,"ARG_OF_PERICENTER":310.3529,"MEAN_ANOMALY":49.6221,"EPHEMERIS_TYPE":0,"CLASSIFICATION_TYPE":"U","NORAD_CAT_ID":22286,"ELEMENT_SET_NO":999,"REV_AT_EPOCH":77582,"BSTAR":0.00027604,"MEAN_MOTION_DOT":3.224e-5,"MEAN_MOTION_DDOT":0},{"OBJECT_NAME":"SL-16 R/B","OBJECT_ID":"1993-016B","EPOCH":"2026-03-07T19:13:24.096576","MEAN_MOTION":14.15307984,"ECCENTRICITY":0.00116455,"INCLINATION":71.0068,"RA_OF_ASC_NODE":219.1474,"ARG_OF_PERICENTER":316.8205,"MEAN_ANOMALY":43.2004,"EPHEMERIS_TYPE":0,"CLASSIFICATION_TYPE":"U","NORAD_CAT_ID":22566,"ELEMENT_SET_NO":999,"REV_AT_EPOCH":70190,"BSTAR":0.00013336925,"MEAN_MOTION_DOT":2.12e-6,"MEAN_MOTION_DDOT":0},{"OBJECT_NAME":"COSMOS 2242","OBJECT_ID":"1993-024A","EPOCH":"2026-03-08T00:44:58.001568","MEAN_MOTION":14.96541018,"ECCENTRICITY":0.0015283,"INCLINATION":82.5154,"RA_OF_ASC_NODE":268.3031,"ARG_OF_PERICENTER":314.8631,"MEAN_ANOMALY":45.1348,"EPHEMERIS_TYPE":0,"CLASSIFICATION_TYPE":"U","NORAD_CAT_ID":22626,"ELEMENT_SET_NO":999,"REV_AT_EPOCH":78014,"BSTAR":0.00026221,"MEAN_MOTION_DOT":3.013e-5,"MEAN_MOTION_DDOT":0}]
